{
  "type": "FeatureCollection",
  "features": [
    {
      "type": "Feature",
      "geometry": {
        "type": "Polygon",
        "coordinates": [
          [
            [
              107.59089469,
              -7.03129591
            ],
            [
              107.59116101,
              -7.03155838
            ],
            [
              107.59133076,
              -7.03169953
            ],
            [
              107.59145285,
              -7.03177904
            ],
            [
              107.59156425,
              -7.03187886
            ],
            [
              107.59172845,
              -7.03189677
            ],
            [
              107.59176493,
              -7.0320334
            ],
            [
              107.59213481,
              -7.03191083
            ],
            [
              107.59216006,
              -7.03192092
            ],
            [
              107.59232981,
              -7.03186537
            ],
            [
              107.59253352,
              -7.03176908
            ],
            [
              107.59263548,
              -7.03170908
            ],
            [
              107.59280556,
              -7.03165472
            ],
            [
              107.59279702,
              -7.03159247
            ],
            [
              107.59279466,
              -7.0313923
            ],
            [
              107.59274413,
              -7.03115185
            ],
            [
              107.59260948,
              -7.0304469
            ],
            [
              107.59256086,
              -7.03007241
            ],
            [
              107.59233469,
              -7.02964183
            ],
            [
              107.59277093,
              -7.0295217
            ],
            [
              107.59284241,
              -7.02946625
            ],
            [
              107.59270404,
              -7.02939169
            ],
            [
              107.59230311,
              -7.02911452
            ],
            [
              107.59229926,
              -7.02912138
            ],
            [
              107.59217392,
              -7.02921544
            ],
            [
              107.59214249,
              -7.02923069
            ],
            [
              107.59165711,
              -7.02929503
            ],
            [
              107.5915325,
              -7.0293284
            ],
            [
              107.59136701,
              -7.02938573
            ],
            [
              107.59123737,
              -7.02946473
            ],
            [
              107.59120302,
              -7.02951394
            ],
            [
              107.59099567,
              -7.02965652
            ],
            [
              107.59089469,
              -7.03129591
            ]
          ]
        ]
      },
      "properties": {
        "persilpasifid": "7E48351A31A5E732E0530C1D140A56F4",
        "nilai": null,
        "tipehak": "Hak Guna Bangunan",
        "luas": 51200,
        "tahun": 2019,
        "nib": "02738",
        "alatukur": null,
        "nomor": "10141501300251",
        "akurasibidang": null,
        "sample_source": "Arjasari",
        "sample_lon": 107.5915143,
        "sample_lat": -7.0300049,
        "kecamatan_id": 320416,
        "kecamatan_nama": "Arjasari",
        "kelurahan_id": null,
        "kelurahan_nama": null,
        "geometry_hash": "4ea87e1ed7875e3673ea9f4b8a091e96",
        "dedup_keys": [
          "nib:02738",
          "persilpasifid:7e48351a31a5e732e0530c1d140a56f4",
          "nomor:10141501300251",
          "geometry:4ea87e1ed7875e3673ea9f4b8a091e96"
        ],
        "source_key": "nib:02738"
      }
    },
    {
      "type": "Feature",
      "geometry": {
        "type": "Polygon",
        "coordinates": [
          [
            [
              107.59073783,
              -7.03784475
            ],
            [
              107.59078554,
              -7.03804724
            ],
            [
              107.59080464,
              -7.038164
            ],
            [
              107.59083918,
              -7.03864588
            ],
            [
              107.59128677,
              -7.03854099
            ],
            [
              107.59164563,
              -7.03851084
            ],
            [
              107.59172326,
              -7.03847875
            ],
            [
              107.59161232,
              -7.03831354
            ],
            [
              107.59150519,
              -7.03808688
            ],
            [
              107.59145415,
              -7.03806165
            ],
            [
              107.5913325,
              -7.03804891
            ],
            [
              107.59119985,
              -7.038201
            ],
            [
              107.59109007,
              -7.03822313
            ],
            [
              107.59104591,
              -7.03821251
            ],
            [
              107.59099124,
              -7.03818176
            ],
            [
              107.59089397,
              -7.03806915
            ],
            [
              107.59087011,
              -7.03793935
            ],
            [
              107.59083592,
              -7.03785527
            ],
            [
              107.59073783,
              -7.03784475
            ]
          ]
        ]
      },
      "properties": {
        "persilpasifid": "46E94121BE1B896CE053141D0B0A7F52",
        "nilai": null,
        "tipehak": "Kosong",
        "luas": 4589,
        "tahun": null,
        "nib": "03312",
        "alatukur": null,
        "nomor": null,
        "akurasibidang": null,
        "sample_source": "Arjasari",
        "sample_lon": 107.5915143,
        "sample_lat": -7.038118,
        "kecamatan_id": 320416,
        "kecamatan_nama": "Arjasari",
        "kelurahan_id": null,
        "kelurahan_nama": null,
        "geometry_hash": "bd45644d1015c19209b76fdeca04a34d",
        "dedup_keys": [
          "nib:03312",
          "persilpasifid:46e94121be1b896ce053141d0b0a7f52",
          "geometry:bd45644d1015c19209b76fdeca04a34d"
        ],
        "source_key": "nib:03312"
      }
    },
    {
      "type": "Feature",
      "geometry": {
        "type": "Polygon",
        "coordinates": [
          [
            [
              107.59235268,
              -7.04423497
            ],
            [
              107.59235466,
              -7.04417091
            ],
            [
              107.59231445,
              -7.04420237
            ],
            [
              107.59212677,
              -7.04429995
            ],
            [
              107.59207503,
              -7.04432379
            ],
            [
              107.59218026,
              -7.04440206
            ],
            [
              107.59222275,
              -7.04440865
            ],
            [
              107.59226489,
              -7.04437948
            ],
            [
              107.59233862,
              -7.04437724
            ],
            [
              107.59235268,
              -7.04423497
            ]
          ]
        ]
      },
      "properties": {
        "persilpasifid": "EAD67D75EFEB1A4FE0530C1D140A4D96",
        "nilai": null,
        "tipehak": "Kosong",
        "luas": 413,
        "tahun": null,
        "nib": null,
        "alatukur": null,
        "nomor": null,
        "akurasibidang": null,
        "sample_source": "Arjasari",
        "sample_lon": 107.5921431,
        "sample_lat": -7.0443588,
        "kecamatan_id": 320416,
        "kecamatan_nama": "Arjasari",
        "kelurahan_id": null,
        "kelurahan_nama": null,
        "geometry_hash": "981ee126ca557b5760c7da68ee57ee16",
        "dedup_keys": [
          "persilpasifid:ead67d75efeb1a4fe0530c1d140a4d96",
          "geometry:981ee126ca557b5760c7da68ee57ee16"
        ],
        "source_key": "persilpasifid:ead67d75efeb1a4fe0530c1d140a4d96"
      }
    },
    {
      "type": "Feature",
      "geometry": {
        "type": "Polygon",
        "coordinates": [
          [
            [
              107.59325261,
              -7.0376596
            ],
            [
              107.59192819,
              -7.03752116
            ],
            [
              107.59194052,
              -7.03740426
            ],
            [
              107.59185952,
              -7.03739574
            ],
            [
              107.59187184,
              -7.03727885
            ],
            [
              107.59116496,
              -7.03720445
            ],
            [
              107.59107368,
              -7.03730756
            ],
            [
              107.5909417,
              -7.03746937
            ],
            [
              107.59090561,
              -7.03774759
            ],
            [
              107.59092203,
              -7.03784107
            ],
            [
              107.59320874,
              -7.03808204
            ],
            [
              107.59325261,
              -7.0376596
            ]
          ]
        ]
      },
      "properties": {
        "persilpasifid": "2f4a8ece8ea04334be603e8749a067cd",
        "nilai": null,
        "tipehak": "Hak Guna Bangunan",
        "luas": 14408,
        "tahun": 2008,
        "nib": "01627",
        "alatukur": null,
        "nomor": "10141702300014",
        "akurasibidang": null,
        "sample_source": "Arjasari",
        "sample_lon": 107.5915143,
        "sample_lat": -7.0374939,
        "kecamatan_id": 320416,
        "kecamatan_nama": "Arjasari",
        "kelurahan_id": null,
        "kelurahan_nama": null,
        "geometry_hash": "6a1eac4e4a5ceb4e0856c962a1574822",
        "dedup_keys": [
          "nib:01627",
          "persilpasifid:2f4a8ece8ea04334be603e8749a067cd",
          "nomor:10141702300014",
          "geometry:6a1eac4e4a5ceb4e0856c962a1574822"
        ],
        "source_key": "nib:01627"
      }
    },
    {
      "type": "Feature",
      "geometry": {
        "type": "Polygon",
        "coordinates": [
          [
            [
              107.64027436,
              -7.0538658
            ],
            [
              107.64026302,
              -7.05390797
            ],
            [
              107.64019634,
              -7.05397759
            ],
            [
              107.6401803,
              -7.05404398
            ],
            [
              107.64017189,
              -7.05423934
            ],
            [
              107.6401557,
              -7.0544379
            ],
            [
              107.64008638,
              -7.05461732
            ],
            [
              107.64005248,
              -7.05481838
            ],
            [
              107.63997436,
              -7.05490285
            ],
            [
              107.63998648,
              -7.05491739
            ],
            [
              107.6399531,
              -7.05501931
            ],
            [
              107.6398722,
              -7.05531539
            ],
            [
              107.63986603,
              -7.05543169
            ],
            [
              107.63982969,
              -7.05549654
            ],
            [
              107.64010763,
              -7.05576837
            ],
            [
              107.64011841,
              -7.05581511
            ],
            [
              107.64011632,
              -7.0558607
            ],
            [
              107.64008295,
              -7.05591491
            ],
            [
              107.64005694,
              -7.05597247
            ],
            [
              107.64004802,
              -7.05602841
            ],
            [
              107.63997388,
              -7.05628492
            ],
            [
              107.63998743,
              -7.05649566
            ],
            [
              107.63996798,
              -7.05673819
            ],
            [
              107.63995151,
              -7.05677273
            ],
            [
              107.63988455,
              -7.05686084
            ],
            [
              107.63979211,
              -7.05693125
            ],
            [
              107.63974962,
              -7.05694946
            ],
            [
              107.63970343,
              -7.05704764
            ],
            [
              107.63963887,
              -7.05709918
            ],
            [
              107.63955521,
              -7.05719069
            ],
            [
              107.63954147,
              -7.05732201
            ],
            [
              107.63959019,
              -7.05741917
            ],
            [
              107.63959863,
              -7.05745838
            ],
            [
              107.63959018,
              -7.05749334
            ],
            [
              107.63958027,
              -7.05751494
            ],
            [
              107.63948509,
              -7.05755571
            ],
            [
              107.63941327,
              -7.05761441
            ],
            [
              107.63936464,
              -7.05759925
            ],
            [
              107.6392428,
              -7.05762024
            ],
            [
              107.63920001,
              -7.05766228
            ],
            [
              107.63917477,
              -7.05768316
            ],
            [
              107.63913161,
              -7.0576925
            ],
            [
              107.63908053,
              -7.05767956
            ],
            [
              107.63895396,
              -7.05774904
            ],
            [
              107.63883638,
              -7.0577719
            ],
            [
              107.63873865,
              -7.05777738
            ],
            [
              107.63866271,
              -7.05805429
            ],
            [
              107.63802223,
              -7.05799318
            ],
            [
              107.63805547,
              -7.05827062
            ],
            [
              107.63792528,
              -7.05827657
            ],
            [
              107.63793993,
              -7.05844093
            ],
            [
              107.63777273,
              -7.05844973
            ],
            [
              107.63784011,
              -7.0590719
            ],
            [
              107.63839415,
              -7.05900728
            ],
            [
              107.6385632,
              -7.05895801
            ],
            [
              107.63861248,
              -7.05895046
            ],
            [
              107.63871251,
              -7.05896175
            ],
            [
              107.63874698,
              -7.0589799
            ],
            [
              107.63879199,
              -7.05917124
            ],
            [
              107.63880482,
              -7.05924741
            ],
            [
              107.63882789,
              -7.05927861
            ],
            [
              107.63884918,
              -7.05938058
            ],
            [
              107.63886649,
              -7.05941991
            ],
            [
              107.63887777,
              -7.05948525
            ],
            [
              107.63886088,
              -7.0595796
            ],
            [
              107.63881452,
              -7.05966761
            ],
            [
              107.63877861,
              -7.05972025
            ],
            [
              107.63876966,
              -7.05975277
            ],
            [
              107.6387477,
              -7.05993321
            ],
            [
              107.63877846,
              -7.06000266
            ],
            [
              107.63876936,
              -7.06011147
            ],
            [
              107.63880097,
              -7.06018793
            ],
            [
              107.63889011,
              -7.06020863
            ],
            [
              107.63891035,
              -7.06023123
            ],
            [
              107.63890958,
              -7.0602559
            ],
            [
              107.63883789,
              -7.06035544
            ],
            [
              107.63878542,
              -7.06048345
            ],
            [
              107.63868715,
              -7.06051905
            ],
            [
              107.63866488,
              -7.06055688
            ],
            [
              107.6385411,
              -7.0606791
            ],
            [
              107.63851714,
              -7.06079187
            ],
            [
              107.63850086,
              -7.06099193
            ],
            [
              107.63853747,
              -7.06107367
            ],
            [
              107.63852512,
              -7.06113552
            ],
            [
              107.63873084,
              -7.06116863
            ],
            [
              107.6388047,
              -7.06116799
            ],
            [
              107.63883839,
              -7.06117466
            ],
            [
              107.63889517,
              -7.0612194
            ],
            [
              107.63893567,
              -7.06125801
            ],
            [
              107.63897385,
              -7.0612641
            ],
            [
              107.63901028,
              -7.06126593
            ],
            [
              107.63906531,
              -7.0613226
            ],
            [
              107.63911779,
              -7.06134972
            ],
            [
              107.63912894,
              -7.06138766
            ],
            [
              107.63912395,
              -7.06143317
            ],
            [
              107.63911645,
              -7.06146393
            ],
            [
              107.63920483,
              -7.06150563
            ],
            [
              107.63922301,
              -7.06153728
            ],
            [
              107.63919177,
              -7.06168224
            ],
            [
              107.63920471,
              -7.06170815
            ],
            [
              107.63918342,
              -7.06182842
            ],
            [
              107.63908099,
              -7.06208037
            ],
            [
              107.6390762,
              -7.06210244
            ],
            [
              107.63914334,
              -7.06218686
            ],
            [
              107.63914162,
              -7.06222125
            ],
            [
              107.63944404,
              -7.06239417
            ],
            [
              107.63943554,
              -7.0624751
            ],
            [
              107.63945218,
              -7.06253321
            ],
            [
              107.63957213,
              -7.06266177
            ],
            [
              107.63957413,
              -7.06272361
            ],
            [
              107.63960438,
              -7.06277082
            ],
            [
              107.63969467,
              -7.06275171
            ],
            [
              107.63976275,
              -7.06276901
            ],
            [
              107.63972492,
              -7.06293817
            ],
            [
              107.63972838,
              -7.06294345
            ],
            [
              107.63977439,
              -7.06294963
            ],
            [
              107.63978527,
              -7.0629339
            ],
            [
              107.63999928,
              -7.06278581
            ],
            [
              107.64038585,
              -7.06281223
            ],
            [
              107.64046612,
              -7.06282708
            ],
            [
              107.64060527,
              -7.06287926
            ],
            [
              107.6406794,
              -7.06292302
            ],
            [
              107.64076609,
              -7.06294273
            ],
            [
              107.64096996,
              -7.06308987
            ],
            [
              107.64104208,
              -7.06317741
            ],
            [
              107.64106785,
              -7.06326968
            ],
            [
              107.64112039,
              -7.06332126
            ],
            [
              107.6411763,
              -7.06335396
            ],
            [
              107.64122544,
              -7.06343735
            ],
            [
              107.64124475,
              -7.06347923
            ],
            [
              107.6412182,
              -7.06360175
            ],
            [
              107.64122602,
              -7.06361212
            ],
            [
              107.64150646,
              -7.06362041
            ],
            [
              107.64154973,
              -7.06373938
            ],
            [
              107.64168835,
              -7.06384556
            ],
            [
              107.64192024,
              -7.06400333
            ],
            [
              107.64221461,
              -7.0641879
            ],
            [
              107.64254407,
              -7.06429358
            ],
            [
              107.64257454,
              -7.06431511
            ],
            [
              107.64267489,
              -7.0644594
            ],
            [
              107.64268917,
              -7.06453145
            ],
            [
              107.64275245,
              -7.06451933
            ],
            [
              107.64289935,
              -7.06450468
            ],
            [
              107.64284158,
              -7.064987
            ],
            [
              107.64279745,
              -7.06520869
            ],
            [
              107.64275661,
              -7.0657705
            ],
            [
              107.64272181,
              -7.06596451
            ],
            [
              107.64268004,
              -7.0660926
            ],
            [
              107.64266657,
              -7.06617958
            ],
            [
              107.64266024,
              -7.06619241
            ],
            [
              107.64274533,
              -7.06620388
            ],
            [
              107.6429261,
              -7.06628739
            ],
            [
              107.64303177,
              -7.06637858
            ],
            [
              107.64308236,
              -7.06645222
            ],
            [
              107.64313767,
              -7.06649971
            ],
            [
              107.64321157,
              -7.06658651
            ],
            [
              107.64332824,
              -7.06662283
            ],
            [
              107.64371425,
              -7.06664691
            ],
            [
              107.643684,
              -7.06705977
            ],
            [
              107.64368948,
              -7.06749632
            ],
            [
              107.64373817,
              -7.06790141
            ],
            [
              107.64385503,
              -7.06803241
            ],
            [
              107.6443865,
              -7.0683725
            ],
            [
              107.64447336,
              -7.06854435
            ],
            [
              107.64460677,
              -7.0689051
            ],
            [
              107.64467126,
              -7.06893041
            ],
            [
              107.6447704,
              -7.06892086
            ],
            [
              107.64483921,
              -7.06924495
            ],
            [
              107.64549434,
              -7.0692766
            ],
            [
              107.64561257,
              -7.06926201
            ],
            [
              107.64612822,
              -7.0693263
            ],
            [
              107.64602426,
              -7.06955116
            ],
            [
              107.64605402,
              -7.06964901
            ],
            [
              107.64604874,
              -7.06981655
            ],
            [
              107.64597154,
              -7.06995058
            ],
            [
              107.64590574,
              -7.07005111
            ],
            [
              107.64583851,
              -7.07006235
            ],
            [
              107.64574864,
              -7.07004669
            ],
            [
              107.64570083,
              -7.07006655
            ],
            [
              107.64561413,
              -7.07028476
            ],
            [
              107.64559675,
              -7.07028515
            ],
            [
              107.64557805,
              -7.07035854
            ],
            [
              107.64551898,
              -7.07041406
            ],
            [
              107.64551039,
              -7.07054943
            ],
            [
              107.64552811,
              -7.07065222
            ],
            [
              107.64536143,
              -7.07092952
            ],
            [
              107.64529205,
              -7.07109794
            ],
            [
              107.64532511,
              -7.07130483
            ],
            [
              107.64501931,
              -7.07130635
            ],
            [
              107.64499697,
              -7.07152485
            ],
            [
              107.64496516,
              -7.07164527
            ],
            [
              107.64521498,
              -7.07173806
            ],
            [
              107.64533161,
              -7.0717995
            ],
            [
              107.64536198,
              -7.07191312
            ],
            [
              107.6456327,
              -7.07195138
            ],
            [
              107.64570052,
              -7.07206569
            ],
            [
              107.64583977,
              -7.07223798
            ],
            [
              107.64627306,
              -7.07288481
            ],
            [
              107.64624047,
              -7.07309429
            ],
            [
              107.64624247,
              -7.073187
            ],
            [
              107.64630956,
              -7.07348665
            ],
            [
              107.64635045,
              -7.07353513
            ],
            [
              107.6465765,
              -7.07359548
            ],
            [
              107.64667719,
              -7.07366174
            ],
            [
              107.64671225,
              -7.07366487
            ],
            [
              107.64677708,
              -7.07372035
            ],
            [
              107.64684199,
              -7.07376936
            ],
            [
              107.64695457,
              -7.07384093
            ],
            [
              107.6470128,
              -7.07394465
            ],
            [
              107.64707303,
              -7.07402497
            ],
            [
              107.64699938,
              -7.07412558
            ],
            [
              107.64691436,
              -7.07435972
            ],
            [
              107.64677939,
              -7.07438398
            ],
            [
              107.64669597,
              -7.0745077
            ],
            [
              107.64662882,
              -7.07501984
            ],
            [
              107.64671352,
              -7.07509524
            ],
            [
              107.64673138,
              -7.07531834
            ],
            [
              107.64671243,
              -7.07539449
            ],
            [
              107.64670941,
              -7.07547477
            ],
            [
              107.6467516,
              -7.07553987
            ],
            [
              107.64676812,
              -7.07569002
            ],
            [
              107.64675135,
              -7.07577909
            ],
            [
              107.64671662,
              -7.07583356
            ],
            [
              107.64666497,
              -7.07590221
            ],
            [
              107.64662968,
              -7.07604823
            ],
            [
              107.64654003,
              -7.07606307
            ],
            [
              107.64650933,
              -7.07609421
            ],
            [
              107.64656541,
              -7.07646637
            ],
            [
              107.64659656,
              -7.07645249
            ],
            [
              107.64661777,
              -7.07652602
            ],
            [
              107.64660117,
              -7.07657964
            ],
            [
              107.64652721,
              -7.07669529
            ],
            [
              107.64646403,
              -7.07675826
            ],
            [
              107.64647902,
              -7.07676886
            ],
            [
              107.64704949,
              -7.07676436
            ],
            [
              107.64688397,
              -7.07768962
            ],
            [
              107.64684419,
              -7.07796926
            ],
            [
              107.64668484,
              -7.07937603
            ],
            [
              107.64667651,
              -7.07942044
            ],
            [
              107.64657148,
              -7.08041235
            ],
            [
              107.64625967,
              -7.08393356
            ],
            [
              107.64620958,
              -7.08520197
            ],
            [
              107.6463086,
              -7.08550331
            ],
            [
              107.64629744,
              -7.08585523
            ],
            [
              107.64747445,
              -7.08532244
            ],
            [
              107.64811194,
              -7.08432477
            ],
            [
              107.64842819,
              -7.08368586
            ],
            [
              107.64855672,
              -7.0832784
            ],
            [
              107.64876212,
              -7.08290906
            ],
            [
              107.64910999,
              -7.08251475
            ],
            [
              107.64938428,
              -7.08187641
            ],
            [
              107.6491342,
              -7.08160267
            ],
            [
              107.64910536,
              -7.08120091
            ],
            [
              107.64916863,
              -7.08094555
            ],
            [
              107.64936637,
              -7.08077532
            ],
            [
              107.64941471,
              -7.08047894
            ],
            [
              107.64975211,
              -7.08039714
            ],
            [
              107.64983323,
              -7.08027305
            ],
            [
              107.64988701,
              -7.08006774
            ],
            [
              107.64996639,
              -7.07982356
            ],
            [
              107.65025356,
              -7.07965225
            ],
            [
              107.65031287,
              -7.07899067
            ],
            [
              107.65044328,
              -7.07871252
            ],
            [
              107.6506322,
              -7.07858748
            ],
            [
              107.65072952,
              -7.0785393
            ],
            [
              107.6508142,
              -7.07837134
            ],
            [
              107.65095391,
              -7.07821887
            ],
            [
              107.65104275,
              -7.07814006
            ],
            [
              107.65097985,
              -7.0780476
            ],
            [
              107.65096984,
              -7.07791955
            ],
            [
              107.6507582,
              -7.07776836
            ],
            [
              107.65084689,
              -7.07761199
            ],
            [
              107.65104204,
              -7.07750261
            ],
            [
              107.6510955,
              -7.07740066
            ],
            [
              107.6510824,
              -7.07736116
            ],
            [
              107.65113322,
              -7.07728565
            ],
            [
              107.65118838,
              -7.07718633
            ],
            [
              107.65110666,
              -7.07710747
            ],
            [
              107.65134897,
              -7.07691025
            ],
            [
              107.65133562,
              -7.07685416
            ],
            [
              107.65133559,
              -7.0766949
            ],
            [
              107.65134304,
              -7.07665236
            ],
            [
              107.65135293,
              -7.07644615
            ],
            [
              107.651491,
              -7.07630207
            ],
            [
              107.65146938,
              -7.076233
            ],
            [
              107.65148216,
              -7.07606215
            ],
            [
              107.65151786,
              -7.0760345
            ],
            [
              107.65158024,
              -7.07604809
            ],
            [
              107.651651,
              -7.07603024
            ],
            [
              107.65171165,
              -7.07577335
            ],
            [
              107.65175701,
              -7.07574382
            ],
            [
              107.65179043,
              -7.07558803
            ],
            [
              107.65178127,
              -7.07553296
            ],
            [
              107.65180654,
              -7.07549037
            ],
            [
              107.65183878,
              -7.07545473
            ],
            [
              107.65186381,
              -7.07539085
            ],
            [
              107.65184103,
              -7.07532223
            ],
            [
              107.65165767,
              -7.07503556
            ],
            [
              107.65166693,
              -7.07487109
            ],
            [
              107.65148909,
              -7.07485651
            ],
            [
              107.65147795,
              -7.07480174
            ],
            [
              107.65158227,
              -7.0747655
            ],
            [
              107.65154051,
              -7.07470601
            ],
            [
              107.65151944,
              -7.07466124
            ],
            [
              107.65139375,
              -7.07470598
            ],
            [
              107.65132122,
              -7.0747062
            ],
            [
              107.65117885,
              -7.07472419
            ],
            [
              107.65098999,
              -7.07486342
            ],
            [
              107.65090086,
              -7.07493232
            ],
            [
              107.65082911,
              -7.07497854
            ],
            [
              107.65063956,
              -7.07498894
            ],
            [
              107.65063434,
              -7.07491244
            ],
            [
              107.6505794,
              -7.07491092
            ],
            [
              107.65057292,
              -7.07490135
            ],
            [
              107.65044372,
              -7.07496728
            ],
            [
              107.65037744,
              -7.07503743
            ],
            [
              107.65030343,
              -7.07508658
            ],
            [
              107.65026549,
              -7.07512918
            ],
            [
              107.65020094,
              -7.07525142
            ],
            [
              107.65017306,
              -7.07528504
            ],
            [
              107.65014188,
              -7.0752929
            ],
            [
              107.65006196,
              -7.07524172
            ],
            [
              107.65002977,
              -7.07516514
            ],
            [
              107.65000799,
              -7.07515253
            ],
            [
              107.65002931,
              -7.075114
            ],
            [
              107.65004102,
              -7.07497945
            ],
            [
              107.65008534,
              -7.07486382
            ],
            [
              107.65012755,
              -7.07473291
            ],
            [
              107.65015119,
              -7.07468832
            ],
            [
              107.65017432,
              -7.07384532
            ],
            [
              107.65079594,
              -7.0738435
            ],
            [
              107.65097659,
              -7.06968769
            ],
            [
              107.64903067,
              -7.06958362
            ],
            [
              107.64925085,
              -7.06440094
            ],
            [
              107.6486084,
              -7.06436599
            ],
            [
              107.64865974,
              -7.06359215
            ],
            [
              107.64788874,
              -7.06349216
            ],
            [
              107.64801767,
              -7.06099667
            ],
            [
              107.64795603,
              -7.06098654
            ],
            [
              107.64787383,
              -7.06098137
            ],
            [
              107.64745103,
              -7.06094365
            ],
            [
              107.64744304,
              -7.0609394
            ],
            [
              107.64739466,
              -7.06100387
            ],
            [
              107.64733892,
              -7.06109193
            ],
            [
              107.6473156,
              -7.06116979
            ],
            [
              107.64728148,
              -7.06124889
            ],
            [
              107.64729022,
              -7.061345
            ],
            [
              107.64736252,
              -7.0615164
            ],
            [
              107.64740654,
              -7.06162851
            ],
            [
              107.64748669,
              -7.06180936
            ],
            [
              107.64744371,
              -7.06181788
            ],
            [
              107.64729266,
              -7.06186552
            ],
            [
              107.64727054,
              -7.06179101
            ],
            [
              107.64705111,
              -7.06166542
            ],
            [
              107.64686154,
              -7.06141996
            ],
            [
              107.64680894,
              -7.06118193
            ],
            [
              107.64687009,
              -7.06097326
            ],
            [
              107.64702295,
              -7.06054941
            ],
            [
              107.64703214,
              -7.06051172
            ],
            [
              107.64705481,
              -7.06045043
            ],
            [
              107.64702447,
              -7.06042937
            ],
            [
              107.64708548,
              -7.06040036
            ],
            [
              107.64719749,
              -7.06029636
            ],
            [
              107.64722911,
              -7.06022327
            ],
            [
              107.64723889,
              -7.06017889
            ],
            [
              107.64746445,
              -7.06023191
            ],
            [
              107.64759442,
              -7.06006949
            ],
            [
              107.64750444,
              -7.05989795
            ],
            [
              107.64740031,
              -7.05970838
            ],
            [
              107.64720907,
              -7.05933652
            ],
            [
              107.64749091,
              -7.0592125
            ],
            [
              107.64728827,
              -7.05857121
            ],
            [
              107.6471595,
              -7.05830847
            ],
            [
              107.64672085,
              -7.05769315
            ],
            [
              107.64657197,
              -7.05743056
            ],
            [
              107.64585795,
              -7.05670651
            ],
            [
              107.64576803,
              -7.05649047
            ],
            [
              107.64575811,
              -7.05600531
            ],
            [
              107.64558637,
              -7.05548654
            ],
            [
              107.64544393,
              -7.05548963
            ],
            [
              107.64526075,
              -7.05547548
            ],
            [
              107.6450896,
              -7.05547136
            ],
            [
              107.64491906,
              -7.05545817
            ],
            [
              107.64490364,
              -7.05537014
            ],
            [
              107.64491542,
              -7.05528324
            ],
            [
              107.64458371,
              -7.05525461
            ],
            [
              107.64430707,
              -7.05522035
            ],
            [
              107.64418836,
              -7.05525282
            ],
            [
              107.64409341,
              -7.05523379
            ],
            [
              107.64408082,
              -7.05522921
            ],
            [
              107.6440549,
              -7.05536589
            ],
            [
              107.64410529,
              -7.0553911
            ],
            [
              107.64401196,
              -7.05595657
            ],
            [
              107.6439476,
              -7.05598471
            ],
            [
              107.64390192,
              -7.0559734
            ],
            [
              107.64382847,
              -7.05597705
            ],
            [
              107.6437389,
              -7.05602409
            ],
            [
              107.64369303,
              -7.0560829
            ],
            [
              107.64360892,
              -7.05614863
            ],
            [
              107.64357868,
              -7.05617551
            ],
            [
              107.6433992,
              -7.05620513
            ],
            [
              107.64334407,
              -7.05623624
            ],
            [
              107.64336065,
              -7.05631905
            ],
            [
              107.64336882,
              -7.05640562
            ],
            [
              107.64333521,
              -7.0565077
            ],
            [
              107.64326926,
              -7.05653922
            ],
            [
              107.6430688,
              -7.05652521
            ],
            [
              107.64261589,
              -7.05651549
            ],
            [
              107.64259898,
              -7.05650438
            ],
            [
              107.64256866,
              -7.05646626
            ],
            [
              107.64249859,
              -7.05613801
            ],
            [
              107.64245876,
              -7.05603667
            ],
            [
              107.64244026,
              -7.05601156
            ],
            [
              107.64241202,
              -7.05598606
            ],
            [
              107.64238126,
              -7.05597726
            ],
            [
              107.64227832,
              -7.05598572
            ],
            [
              107.64224756,
              -7.05597692
            ],
            [
              107.6422068,
              -7.05592402
            ],
            [
              107.64217222,
              -7.05590163
            ],
            [
              107.64212832,
              -7.05588894
            ],
            [
              107.64207645,
              -7.05593428
            ],
            [
              107.6420305,
              -7.05595393
            ],
            [
              107.64199176,
              -7.05596649
            ],
            [
              107.64193415,
              -7.0559519
            ],
            [
              107.64183699,
              -7.05587066
            ],
            [
              107.64176379,
              -7.05585661
            ],
            [
              107.64163018,
              -7.05569772
            ],
            [
              107.64160049,
              -7.0556478
            ],
            [
              107.64159526,
              -7.0556016
            ],
            [
              107.64160745,
              -7.05554797
            ],
            [
              107.64160119,
              -7.05549961
            ],
            [
              107.64156461,
              -7.05545271
            ],
            [
              107.64153336,
              -7.05543389
            ],
            [
              107.64153279,
              -7.05537725
            ],
            [
              107.64150984,
              -7.05533621
            ],
            [
              107.64144832,
              -7.05530548
            ],
            [
              107.64142088,
              -7.05528783
            ],
            [
              107.64137823,
              -7.05514466
            ],
            [
              107.64135464,
              -7.05510503
            ],
            [
              107.6413055,
              -7.05506408
            ],
            [
              107.64121394,
              -7.0550273
            ],
            [
              107.64107595,
              -7.05497988
            ],
            [
              107.64103507,
              -7.05492966
            ],
            [
              107.64097005,
              -7.05489783
            ],
            [
              107.64093763,
              -7.05489202
            ],
            [
              107.64088584,
              -7.05490493
            ],
            [
              107.64080701,
              -7.05491886
            ],
            [
              107.64074743,
              -7.05488605
            ],
            [
              107.64063218,
              -7.05474236
            ],
            [
              107.64058167,
              -7.05463883
            ],
            [
              107.6405874,
              -7.05456334
            ],
            [
              107.64064279,
              -7.05451677
            ],
            [
              107.64061635,
              -7.05440108
            ],
            [
              107.64064014,
              -7.05427558
            ],
            [
              107.6406242,
              -7.05416551
            ],
            [
              107.64062891,
              -7.05408233
            ],
            [
              107.64057081,
              -7.05392366
            ],
            [
              107.64049198,
              -7.05387925
            ],
            [
              107.64046564,
              -7.05388833
            ],
            [
              107.64027436,
              -7.0538658
            ]
          ]
        ]
      },
      "properties": {
        "persilpasifid": "F6099317048E8578E043031D0B0AB590",
        "nilai": null,
        "tipehak": "Hak Pakai",
        "luas": 2000000,
        "tahun": 1980,
        "nib": null,
        "alatukur": null,
        "nomor": "10141706400001",
        "akurasibidang": null,
        "sample_source": "Arjasari",
        "sample_lon": 107.6469057,
        "sample_lat": -7.0692623,
        "kecamatan_id": 320416,
        "kecamatan_nama": "Arjasari",
        "kelurahan_id": null,
        "kelurahan_nama": null,
        "geometry_hash": "ab54d4cd3f1265d16fff8c6095ee0e46",
        "dedup_keys": [
          "persilpasifid:f6099317048e8578e043031d0b0ab590",
          "nomor:10141706400001",
          "geometry:ab54d4cd3f1265d16fff8c6095ee0e46"
        ],
        "source_key": "persilpasifid:f6099317048e8578e043031d0b0ab590"
      }
    },
    {
      "type": "Feature",
      "geometry": {
        "type": "Polygon",
        "coordinates": [
          [
            [
              107.59194095,
              -7.04195189
            ],
            [
              107.59206205,
              -7.04196188
            ],
            [
              107.59217834,
              -7.0420022
            ],
            [
              107.59226432,
              -7.04204761
            ],
            [
              107.59236814,
              -7.04211777
            ],
            [
              107.59242515,
              -7.04197438
            ],
            [
              107.59283077,
              -7.04200078
            ],
            [
              107.59291137,
              -7.04126099
            ],
            [
              107.59210359,
              -7.0412176
            ],
            [
              107.59197805,
              -7.04132889
            ],
            [
              107.59169283,
              -7.04125858
            ],
            [
              107.59166565,
              -7.04126994
            ],
            [
              107.59167485,
              -7.04134914
            ],
            [
              107.5918472,
              -7.04166507
            ],
            [
              107.5918913,
              -7.04178258
            ],
            [
              107.591931,
              -7.04183354
            ],
            [
              107.59194095,
              -7.04195189
            ]
          ]
        ]
      },
      "properties": {
        "persilpasifid": "3ca2210b32e7468e9d303696a9f1ac4c",
        "nilai": null,
        "tipehak": "Hak Pakai",
        "luas": 9610,
        "tahun": 2014,
        "nib": "01518",
        "alatukur": null,
        "nomor": "10141702400001",
        "akurasibidang": null,
        "sample_source": "Arjasari",
        "sample_lon": 107.5921431,
        "sample_lat": -7.0418625,
        "kecamatan_id": 320416,
        "kecamatan_nama": "Arjasari",
        "kelurahan_id": null,
        "kelurahan_nama": null,
        "geometry_hash": "7fd46f15570718d36e5458bab0a33946",
        "dedup_keys": [
          "nib:01518",
          "persilpasifid:3ca2210b32e7468e9d303696a9f1ac4c",
          "nomor:10141702400001",
          "geometry:7fd46f15570718d36e5458bab0a33946"
        ],
        "source_key": "nib:01518"
      }
    },
    {
      "type": "Feature",
      "geometry": {
        "type": "Polygon",
        "coordinates": [
          [
            [
              107.59177081,
              -7.03672041
            ],
            [
              107.59148122,
              -7.03669141
            ],
            [
              107.5913868,
              -7.03697597
            ],
            [
              107.59137727,
              -7.03698656
            ],
            [
              107.59139799,
              -7.03699476
            ],
            [
              107.59143569,
              -7.03703862
            ],
            [
              107.59190095,
              -7.03719345
            ],
            [
              107.59198548,
              -7.03719364
            ],
            [
              107.59216801,
              -7.03703457
            ],
            [
              107.59216605,
              -7.03691072
            ],
            [
              107.59198356,
              -7.03687251
            ],
            [
              107.59184823,
              -7.03680857
            ],
            [
              107.59177081,
              -7.03672041
            ]
          ]
        ]
      },
      "properties": {
        "persilpasifid": "47130AA4173BB6AAE053141D0B0A375F",
        "nilai": null,
        "tipehak": "Hak Guna Bangunan",
        "luas": 3083,
        "tahun": 2020,
        "nib": "03315",
        "alatukur": null,
        "nomor": "10141302301145",
        "akurasibidang": null,
        "sample_source": "Arjasari",
        "sample_lon": 107.5915143,
        "sample_lat": -7.0368699,
        "kecamatan_id": 320416,
        "kecamatan_nama": "Arjasari",
        "kelurahan_id": null,
        "kelurahan_nama": null,
        "geometry_hash": "8c7c56ddaaf21b06ca749ca792324443",
        "dedup_keys": [
          "nib:03315",
          "persilpasifid:47130aa4173bb6aae053141d0b0a375f",
          "nomor:10141302301145",
          "geometry:8c7c56ddaaf21b06ca749ca792324443"
        ],
        "source_key": "nib:03315"
      }
    },
    {
      "type": "Feature",
      "geometry": {
        "type": "Polygon",
        "coordinates": [
          [
            [
              107.59333425,
              -7.03687348
            ],
            [
              107.59185406,
              -7.03670728
            ],
            [
              107.59203828,
              -7.03675649
            ],
            [
              107.59227284,
              -7.03683498
            ],
            [
              107.59228402,
              -7.03711958
            ],
            [
              107.59200172,
              -7.03727041
            ],
            [
              107.59185856,
              -7.0372587
            ],
            [
              107.59138915,
              -7.0370643
            ],
            [
              107.59130897,
              -7.03704173
            ],
            [
              107.59116496,
              -7.03720445
            ],
            [
              107.59187184,
              -7.03727885
            ],
            [
              107.59185952,
              -7.03739574
            ],
            [
              107.59194052,
              -7.03740426
            ],
            [
              107.59192819,
              -7.03752116
            ],
            [
              107.59325261,
              -7.0376596
            ],
            [
              107.59329716,
              -7.03723062
            ],
            [
              107.59307212,
              -7.0372073
            ],
            [
              107.59309546,
              -7.03698247
            ],
            [
              107.59332051,
              -7.03700579
            ],
            [
              107.59333425,
              -7.03687348
            ]
          ]
        ]
      },
      "properties": {
        "persilpasifid": "a1134c77e0b544e680089f7f6ed2d028",
        "nilai": null,
        "tipehak": "Hak Guna Bangunan",
        "luas": 11794,
        "tahun": 2008,
        "nib": "01628",
        "alatukur": null,
        "nomor": "10141702300015",
        "akurasibidang": null,
        "sample_source": "Arjasari",
        "sample_lon": 107.5921431,
        "sample_lat": -7.0374939,
        "kecamatan_id": 320416,
        "kecamatan_nama": "Arjasari",
        "kelurahan_id": null,
        "kelurahan_nama": null,
        "geometry_hash": "fc2a194a9dd5c15fcfa12ab274c91e97",
        "dedup_keys": [
          "nib:01628",
          "persilpasifid:a1134c77e0b544e680089f7f6ed2d028",
          "nomor:10141702300015",
          "geometry:fc2a194a9dd5c15fcfa12ab274c91e97"
        ],
        "source_key": "nib:01628"
      }
    },
    {
      "type": "Feature",
      "geometry": {
        "type": "Polygon",
        "coordinates": [
          [
            [
              107.59293817,
              -7.04099269
            ],
            [
              107.59307978,
              -7.03971622
            ],
            [
              107.59240418,
              -7.03970585
            ],
            [
              107.59205548,
              -7.03973576
            ],
            [
              107.59197033,
              -7.03977416
            ],
            [
              107.59191565,
              -7.03990419
            ],
            [
              107.59183448,
              -7.03997827
            ],
            [
              107.59179341,
              -7.04001182
            ],
            [
              107.59172532,
              -7.04003188
            ],
            [
              107.59164533,
              -7.04005092
            ],
            [
              107.5915753,
              -7.04010341
            ],
            [
              107.59154504,
              -7.04016302
            ],
            [
              107.59153848,
              -7.04024146
            ],
            [
              107.59168576,
              -7.0404435
            ],
            [
              107.5917029,
              -7.04057029
            ],
            [
              107.59171568,
              -7.04061654
            ],
            [
              107.5917311,
              -7.04065943
            ],
            [
              107.59176019,
              -7.04071958
            ],
            [
              107.59182241,
              -7.04080579
            ],
            [
              107.59191824,
              -7.04091181
            ],
            [
              107.59293817,
              -7.04099269
            ]
          ]
        ]
      },
      "properties": {
        "persilpasifid": "ed31a1617a854c0298b3b097f605a2e9",
        "nilai": null,
        "tipehak": "Hak Milik",
        "luas": 19090,
        "tahun": 1974,
        "nib": null,
        "alatukur": null,
        "nomor": "10141702100008",
        "akurasibidang": null,
        "sample_source": "Arjasari",
        "sample_lon": 107.5921431,
        "sample_lat": -7.0406143,
        "kecamatan_id": 320416,
        "kecamatan_nama": "Arjasari",
        "kelurahan_id": null,
        "kelurahan_nama": null,
        "geometry_hash": "20d8f24f87dfaa622153df4f2d5975b1",
        "dedup_keys": [
          "persilpasifid:ed31a1617a854c0298b3b097f605a2e9",
          "nomor:10141702100008",
          "geometry:20d8f24f87dfaa622153df4f2d5975b1"
        ],
        "source_key": "persilpasifid:ed31a1617a854c0298b3b097f605a2e9"
      }
    },
    {
      "type": "Feature",
      "geometry": {
        "type": "Polygon",
        "coordinates": [
          [
            [
              107.59272351,
              -7.03955781
            ],
            [
              107.59275343,
              -7.03930198
            ],
            [
              107.59254364,
              -7.03928293
            ],
            [
              107.59208826,
              -7.03932598
            ],
            [
              107.5919438,
              -7.03936218
            ],
            [
              107.59193171,
              -7.03933802
            ],
            [
              107.59190395,
              -7.03934583
            ],
            [
              107.59188544,
              -7.03937922
            ],
            [
              107.59200682,
              -7.03960692
            ],
            [
              107.59212281,
              -7.03959014
            ],
            [
              107.59238048,
              -7.03957656
            ],
            [
              107.59272071,
              -7.03958179
            ],
            [
              107.59272351,
              -7.03955781
            ]
          ]
        ]
      },
      "properties": {
        "persilpasifid": "516dbb791aaa43268504ba2bbd9204aa",
        "nilai": null,
        "tipehak": "Hak Milik",
        "luas": 2700,
        "tahun": 1974,
        "nib": null,
        "alatukur": null,
        "nomor": "10141702100011",
        "akurasibidang": null,
        "sample_source": "Arjasari",
        "sample_lon": 107.5921431,
        "sample_lat": -7.0393662,
        "kecamatan_id": 320416,
        "kecamatan_nama": "Arjasari",
        "kelurahan_id": null,
        "kelurahan_nama": null,
        "geometry_hash": "8a8c8366cc197bed58dce385eebd62db",
        "dedup_keys": [
          "persilpasifid:516dbb791aaa43268504ba2bbd9204aa",
          "nomor:10141702100011",
          "geometry:8a8c8366cc197bed58dce385eebd62db"
        ],
        "source_key": "persilpasifid:516dbb791aaa43268504ba2bbd9204aa"
      }
    },
    {
      "type": "Feature",
      "geometry": {
        "type": "Polygon",
        "coordinates": [
          [
            [
              107.59226884,
              -7.03557234
            ],
            [
              107.59204416,
              -7.03560319
            ],
            [
              107.59201794,
              -7.03556605
            ],
            [
              107.59197791,
              -7.03554798
            ],
            [
              107.59192503,
              -7.03542809
            ],
            [
              107.59188102,
              -7.03538537
            ],
            [
              107.59186692,
              -7.03533783
            ],
            [
              107.59187527,
              -7.03522889
            ],
            [
              107.59177823,
              -7.03522223
            ],
            [
              107.59174453,
              -7.03528454
            ],
            [
              107.59173603,
              -7.03549163
            ],
            [
              107.59185284,
              -7.03572821
            ],
            [
              107.59232788,
              -7.03578171
            ],
            [
              107.59229299,
              -7.03610163
            ],
            [
              107.59341894,
              -7.03622445
            ],
            [
              107.59349632,
              -7.03576171
            ],
            [
              107.59309836,
              -7.03592381
            ],
            [
              107.59288424,
              -7.03541132
            ],
            [
              107.5923008,
              -7.03557262
            ],
            [
              107.59226884,
              -7.03557234
            ]
          ]
        ]
      },
      "properties": {
        "persilpasifid": "7f9e5a8def454c94a37552aeb5bdfba1",
        "nilai": null,
        "tipehak": "Hak Guna Bangunan",
        "luas": 9164,
        "tahun": 2008,
        "nib": "01630",
        "alatukur": null,
        "nomor": "10141702300017",
        "akurasibidang": null,
        "sample_source": "Arjasari",
        "sample_lon": 107.5921431,
        "sample_lat": -7.0356217,
        "kecamatan_id": 320416,
        "kecamatan_nama": "Arjasari",
        "kelurahan_id": null,
        "kelurahan_nama": null,
        "geometry_hash": "cfbcfed7176fbe4c47dfeca2175a78d5",
        "dedup_keys": [
          "nib:01630",
          "persilpasifid:7f9e5a8def454c94a37552aeb5bdfba1",
          "nomor:10141702300017",
          "geometry:cfbcfed7176fbe4c47dfeca2175a78d5"
        ],
        "source_key": "nib:01630"
      }
    },
    {
      "type": "Feature",
      "geometry": {
        "type": "Polygon",
        "coordinates": [
          [
            [
              107.59316217,
              -7.03891335
            ],
            [
              107.59318972,
              -7.03864804
            ],
            [
              107.59295685,
              -7.03862558
            ],
            [
              107.59193277,
              -7.03851613
            ],
            [
              107.59191686,
              -7.0385533
            ],
            [
              107.59182576,
              -7.0386546
            ],
            [
              107.59182433,
              -7.03869149
            ],
            [
              107.59184695,
              -7.03867132
            ],
            [
              107.59186503,
              -7.03869155
            ],
            [
              107.59188543,
              -7.03889349
            ],
            [
              107.59216451,
              -7.03879333
            ],
            [
              107.592569,
              -7.03880153
            ],
            [
              107.59259933,
              -7.0387871
            ],
            [
              107.59271864,
              -7.03879402
            ],
            [
              107.59296264,
              -7.03886637
            ],
            [
              107.59303317,
              -7.03889843
            ],
            [
              107.59316217,
              -7.03891335
            ]
          ]
        ]
      },
      "properties": {
        "persilpasifid": "72753058fcb449aa8e916e6538e394a0",
        "nilai": null,
        "tipehak": "Hak Guna Bangunan",
        "luas": 3980,
        "tahun": 2008,
        "nib": "01625",
        "alatukur": null,
        "nomor": "10141702300012",
        "akurasibidang": null,
        "sample_source": "Arjasari",
        "sample_lon": 107.5921431,
        "sample_lat": -7.0387421,
        "kecamatan_id": 320416,
        "kecamatan_nama": "Arjasari",
        "kelurahan_id": null,
        "kelurahan_nama": null,
        "geometry_hash": "b943337479f0503dfc82d43c6f7616fb",
        "dedup_keys": [
          "nib:01625",
          "persilpasifid:72753058fcb449aa8e916e6538e394a0",
          "nomor:10141702300012",
          "geometry:b943337479f0503dfc82d43c6f7616fb"
        ],
        "source_key": "nib:01625"
      }
    },
    {
      "type": "Feature",
      "geometry": {
        "type": "Polygon",
        "coordinates": [
          [
            [
              107.59185284,
              -7.03572821
            ],
            [
              107.5918253,
              -7.03583626
            ],
            [
              107.59189219,
              -7.03589341
            ],
            [
              107.59204988,
              -7.03588635
            ],
            [
              107.59211257,
              -7.03593769
            ],
            [
              107.59212938,
              -7.03598253
            ],
            [
              107.59209025,
              -7.0360779
            ],
            [
              107.59193704,
              -7.03628045
            ],
            [
              107.59168264,
              -7.03636415
            ],
            [
              107.59163743,
              -7.03648154
            ],
            [
              107.59175955,
              -7.03656834
            ],
            [
              107.59186869,
              -7.03670417
            ],
            [
              107.59334889,
              -7.03687036
            ],
            [
              107.59341894,
              -7.03622445
            ],
            [
              107.59229299,
              -7.03610163
            ],
            [
              107.59232788,
              -7.03578171
            ],
            [
              107.59185284,
              -7.03572821
            ]
          ]
        ]
      },
      "properties": {
        "persilpasifid": "b07b0b3330f64c7d90abf05330eab5ea",
        "nilai": null,
        "tipehak": "Hak Guna Bangunan",
        "luas": 12720,
        "tahun": 2008,
        "nib": "01629",
        "alatukur": null,
        "nomor": "10141702300016",
        "akurasibidang": null,
        "sample_source": "Arjasari",
        "sample_lon": 107.5921431,
        "sample_lat": -7.0362458,
        "kecamatan_id": 320416,
        "kecamatan_nama": "Arjasari",
        "kelurahan_id": null,
        "kelurahan_nama": null,
        "geometry_hash": "8e79c60dca17e88d6e3b15718db112c4",
        "dedup_keys": [
          "nib:01629",
          "persilpasifid:b07b0b3330f64c7d90abf05330eab5ea",
          "nomor:10141702300016",
          "geometry:8e79c60dca17e88d6e3b15718db112c4"
        ],
        "source_key": "nib:01629"
      }
    },
    {
      "type": "Feature",
      "geometry": {
        "type": "Polygon",
        "coordinates": [
          [
            [
              107.5933124,
              -7.0321562
            ],
            [
              107.59327304,
              -7.03203514
            ],
            [
              107.59322413,
              -7.03185256
            ],
            [
              107.59313764,
              -7.03186561
            ],
            [
              107.59299588,
              -7.03192757
            ],
            [
              107.59288918,
              -7.03200479
            ],
            [
              107.59269992,
              -7.03210063
            ],
            [
              107.59252439,
              -7.03224155
            ],
            [
              107.59241236,
              -7.03228801
            ],
            [
              107.59203165,
              -7.03254789
            ],
            [
              107.5920535,
              -7.03258277
            ],
            [
              107.59250974,
              -7.03251661
            ],
            [
              107.59254317,
              -7.0325004
            ],
            [
              107.5924592,
              -7.03236473
            ],
            [
              107.5933124,
              -7.0321562
            ]
          ]
        ]
      },
      "properties": {
        "persilpasifid": "2fb3ed65ed144eeebd9f42304e9b4ca2",
        "nilai": null,
        "tipehak": "Hak Milik",
        "luas": 3262,
        "tahun": 2001,
        "nib": null,
        "alatukur": null,
        "nomor": "10141701100657",
        "akurasibidang": null,
        "sample_source": "Arjasari",
        "sample_lon": 107.5921431,
        "sample_lat": -7.0325012,
        "kecamatan_id": 320416,
        "kecamatan_nama": "Arjasari",
        "kelurahan_id": null,
        "kelurahan_nama": null,
        "geometry_hash": "691ad17ce9678fc2f6bc3b0e0fde7275",
        "dedup_keys": [
          "persilpasifid:2fb3ed65ed144eeebd9f42304e9b4ca2",
          "nomor:10141701100657",
          "geometry:691ad17ce9678fc2f6bc3b0e0fde7275"
        ],
        "source_key": "persilpasifid:2fb3ed65ed144eeebd9f42304e9b4ca2"
      }
    },
    {
      "type": "Feature",
      "geometry": {
        "type": "Polygon",
        "coordinates": [
          [
            [
              107.59279181,
              -7.04305931
            ],
            [
              107.59211011,
              -7.04303449
            ],
            [
              107.5921225,
              -7.04330504
            ],
            [
              107.59279035,
              -7.04317608
            ],
            [
              107.59279181,
              -7.04305931
            ]
          ]
        ]
      },
      "properties": {
        "persilpasifid": "3e002a855acd4578a864c56b7ca972b2",
        "nilai": null,
        "tipehak": "Hak Milik",
        "luas": 1600,
        "tahun": 1995,
        "nib": null,
        "alatukur": null,
        "nomor": "10141702100245",
        "akurasibidang": null,
        "sample_source": "Arjasari",
        "sample_lon": 107.5921431,
        "sample_lat": -7.0431107,
        "kecamatan_id": 320416,
        "kecamatan_nama": "Arjasari",
        "kelurahan_id": null,
        "kelurahan_nama": null,
        "geometry_hash": "cd4f558289f45375d7cfc4a36b4c975f",
        "dedup_keys": [
          "persilpasifid:3e002a855acd4578a864c56b7ca972b2",
          "nomor:10141702100245",
          "geometry:cd4f558289f45375d7cfc4a36b4c975f"
        ],
        "source_key": "persilpasifid:3e002a855acd4578a864c56b7ca972b2"
      }
    },
    {
      "type": "Feature",
      "geometry": {
        "type": "Polygon",
        "coordinates": [
          [
            [
              107.59208217,
              -7.04092481
            ],
            [
              107.59219162,
              -7.04106465
            ],
            [
              107.59219985,
              -7.04108984
            ],
            [
              107.59218754,
              -7.04122211
            ],
            [
              107.59291137,
              -7.04126099
            ],
            [
              107.59293817,
              -7.04099269
            ],
            [
              107.59208217,
              -7.04092481
            ]
          ]
        ]
      },
      "properties": {
        "persilpasifid": "afe762d423f04184a65c0113a3dc959e",
        "nilai": null,
        "tipehak": "Hak Milik",
        "luas": 2587,
        "tahun": 1974,
        "nib": "00024",
        "alatukur": null,
        "nomor": "10141702100009",
        "akurasibidang": null,
        "sample_source": "Arjasari",
        "sample_lon": 107.5927719,
        "sample_lat": -7.0412384,
        "kecamatan_id": 320416,
        "kecamatan_nama": "Arjasari",
        "kelurahan_id": null,
        "kelurahan_nama": null,
        "geometry_hash": "d41aad7eb3b6a566c03f449344e46f92",
        "dedup_keys": [
          "nib:00024",
          "persilpasifid:afe762d423f04184a65c0113a3dc959e",
          "nomor:10141702100009",
          "geometry:d41aad7eb3b6a566c03f449344e46f92"
        ],
        "source_key": "nib:00024"
      }
    },
    {
      "type": "Feature",
      "geometry": {
        "type": "Polygon",
        "coordinates": [
          [
            [
              107.59320874,
              -7.03808204
            ],
            [
              107.59103009,
              -7.03785324
            ],
            [
              107.59092203,
              -7.03784107
            ],
            [
              107.59094098,
              -7.03794043
            ],
            [
              107.59096064,
              -7.03798618
            ],
            [
              107.59103877,
              -7.03804582
            ],
            [
              107.59108583,
              -7.03805909
            ],
            [
              107.59112656,
              -7.03806414
            ],
            [
              107.59121784,
              -7.03797016
            ],
            [
              107.59123022,
              -7.03792269
            ],
            [
              107.59155921,
              -7.037959
            ],
            [
              107.59157704,
              -7.03797102
            ],
            [
              107.59160294,
              -7.03800717
            ],
            [
              107.5916189,
              -7.03809234
            ],
            [
              107.59164272,
              -7.03814278
            ],
            [
              107.59169252,
              -7.03820298
            ],
            [
              107.59179161,
              -7.03839742
            ],
            [
              107.5918061,
              -7.03842084
            ],
            [
              107.59185263,
              -7.03845816
            ],
            [
              107.59190261,
              -7.03850733
            ],
            [
              107.59187724,
              -7.03866801
            ],
            [
              107.59290131,
              -7.03877746
            ],
            [
              107.59313419,
              -7.03879992
            ],
            [
              107.59320874,
              -7.03808204
            ]
          ]
        ]
      },
      "properties": {
        "persilpasifid": "68be8cd3703e474bbc38d91c7daa76a7",
        "nilai": null,
        "tipehak": "Hak Guna Bangunan",
        "luas": 13511,
        "tahun": 2008,
        "nib": "01626",
        "alatukur": null,
        "nomor": "10141702300013",
        "akurasibidang": null,
        "sample_source": "Arjasari",
        "sample_lon": 107.5927719,
        "sample_lat": -7.038118,
        "kecamatan_id": 320416,
        "kecamatan_nama": "Arjasari",
        "kelurahan_id": null,
        "kelurahan_nama": null,
        "geometry_hash": "9ca261da1814cd078ee50f0c93c716b4",
        "dedup_keys": [
          "nib:01626",
          "persilpasifid:68be8cd3703e474bbc38d91c7daa76a7",
          "nomor:10141702300013",
          "geometry:9ca261da1814cd078ee50f0c93c716b4"
        ],
        "source_key": "nib:01626"
      }
    },
    {
      "type": "Feature",
      "geometry": {
        "type": "Polygon",
        "coordinates": [
          [
            [
              107.59201794,
              -7.03556605
            ],
            [
              107.59204416,
              -7.03560319
            ],
            [
              107.59229498,
              -7.03556875
            ],
            [
              107.59288311,
              -7.03540983
            ],
            [
              107.59300842,
              -7.0353693
            ],
            [
              107.59309515,
              -7.03532177
            ],
            [
              107.59316348,
              -7.0353007
            ],
            [
              107.59329248,
              -7.03527377
            ],
            [
              107.59334779,
              -7.03525337
            ],
            [
              107.59338747,
              -7.0352655
            ],
            [
              107.59343755,
              -7.03528488
            ],
            [
              107.59350529,
              -7.03528431
            ],
            [
              107.59350232,
              -7.03513075
            ],
            [
              107.59328245,
              -7.03512515
            ],
            [
              107.59312815,
              -7.03472664
            ],
            [
              107.59192813,
              -7.03505854
            ],
            [
              107.59201794,
              -7.03556605
            ]
          ]
        ]
      },
      "properties": {
        "persilpasifid": "2d67bfcc87a641a69a956cbde0de76d5",
        "nilai": null,
        "tipehak": "Hak Milik",
        "luas": 9590,
        "tahun": 1980,
        "nib": "01760",
        "alatukur": null,
        "nomor": "10141702100049",
        "akurasibidang": null,
        "sample_source": "Arjasari",
        "sample_lon": 107.5921431,
        "sample_lat": -7.0349976,
        "kecamatan_id": 320416,
        "kecamatan_nama": "Arjasari",
        "kelurahan_id": null,
        "kelurahan_nama": null,
        "geometry_hash": "d364b2c49f8780212aca5760cb6f2d04",
        "dedup_keys": [
          "nib:01760",
          "persilpasifid:2d67bfcc87a641a69a956cbde0de76d5",
          "nomor:10141702100049",
          "geometry:d364b2c49f8780212aca5760cb6f2d04"
        ],
        "source_key": "nib:01760"
      }
    },
    {
      "type": "Feature",
      "geometry": {
        "type": "Polygon",
        "coordinates": [
          [
            [
              107.59243679,
              -7.03491786
            ],
            [
              107.59233472,
              -7.03463663
            ],
            [
              107.59219314,
              -7.03468292
            ],
            [
              107.59210111,
              -7.03476305
            ],
            [
              107.59178497,
              -7.03470256
            ],
            [
              107.59183049,
              -7.03489016
            ],
            [
              107.59190087,
              -7.03496483
            ],
            [
              107.59192813,
              -7.03505854
            ],
            [
              107.59243679,
              -7.03491786
            ]
          ]
        ]
      },
      "properties": {
        "persilpasifid": "aefa434a4e014af5bc8481c4029d935b",
        "nilai": null,
        "tipehak": "Hak Milik",
        "luas": 1965,
        "tahun": 2019,
        "nib": "01673",
        "alatukur": null,
        "nomor": "10141702100262",
        "akurasibidang": null,
        "sample_source": "Arjasari",
        "sample_lon": 107.5921431,
        "sample_lat": -7.0349976,
        "kecamatan_id": 320416,
        "kecamatan_nama": "Arjasari",
        "kelurahan_id": null,
        "kelurahan_nama": null,
        "geometry_hash": "329084d8a8e36b9a83e8a66441b1ba39",
        "dedup_keys": [
          "nib:01673",
          "persilpasifid:aefa434a4e014af5bc8481c4029d935b",
          "nomor:10141702100262",
          "geometry:329084d8a8e36b9a83e8a66441b1ba39"
        ],
        "source_key": "nib:01673"
      }
    },
    {
      "type": "Feature",
      "geometry": {
        "type": "Polygon",
        "coordinates": [
          [
            [
              107.59217099,
              -7.03436367
            ],
            [
              107.59212507,
              -7.03438101
            ],
            [
              107.59218644,
              -7.03448486
            ],
            [
              107.59229684,
              -7.03444162
            ],
            [
              107.5922587,
              -7.03435139
            ],
            [
              107.59221772,
              -7.03435917
            ],
            [
              107.59221019,
              -7.03434914
            ],
            [
              107.59217099,
              -7.03436367
            ]
          ]
        ]
      },
      "properties": {
        "persilpasifid": "EB3982A917F4A5D3E0530C1D140A6EFA",
        "nilai": null,
        "tipehak": "Hak Milik",
        "luas": 174,
        "tahun": 2022,
        "nib": null,
        "alatukur": "GPS Geodetic",
        "nomor": "10141702101125",
        "akurasibidang": null,
        "sample_source": "Arjasari",
        "sample_lon": 107.5921431,
        "sample_lat": -7.0343735,
        "kecamatan_id": 320416,
        "kecamatan_nama": "Arjasari",
        "kelurahan_id": null,
        "kelurahan_nama": null,
        "geometry_hash": "93c27f96d77bbe0a5ce8fd53b4fd43de",
        "dedup_keys": [
          "persilpasifid:eb3982a917f4a5d3e0530c1d140a6efa",
          "nomor:10141702101125",
          "geometry:93c27f96d77bbe0a5ce8fd53b4fd43de"
        ],
        "source_key": "persilpasifid:eb3982a917f4a5d3e0530c1d140a6efa"
      }
    },
    {
      "type": "Feature",
      "geometry": {
        "type": "Polygon",
        "coordinates": [
          [
            [
              107.59272405,
              -7.04252333
            ],
            [
              107.59280996,
              -7.04253278
            ],
            [
              107.59281775,
              -7.04246199
            ],
            [
              107.59273205,
              -7.04245233
            ],
            [
              107.59272405,
              -7.04252333
            ]
          ]
        ]
      },
      "properties": {
        "persilpasifid": "EB3A12769D8722FAE0530B1D140A9369",
        "nilai": null,
        "tipehak": "Hak Milik",
        "luas": 75,
        "tahun": 2022,
        "nib": null,
        "alatukur": "GPS Geodetic",
        "nomor": "10141702101485",
        "akurasibidang": null,
        "sample_source": "Arjasari",
        "sample_lon": 107.5927719,
        "sample_lat": -7.0424866,
        "kecamatan_id": 320416,
        "kecamatan_nama": "Arjasari",
        "kelurahan_id": null,
        "kelurahan_nama": null,
        "geometry_hash": "e2bf7868d603cbde507fc6c02da7624d",
        "dedup_keys": [
          "persilpasifid:eb3a12769d8722fae0530b1d140a9369",
          "nomor:10141702101485",
          "geometry:e2bf7868d603cbde507fc6c02da7624d"
        ],
        "source_key": "persilpasifid:eb3a12769d8722fae0530b1d140a9369"
      }
    },
    {
      "type": "Feature",
      "geometry": {
        "type": "Polygon",
        "coordinates": [
          [
            [
              107.59099048,
              -7.03684299
            ],
            [
              107.59098047,
              -7.03690599
            ],
            [
              107.59104945,
              -7.03695143
            ],
            [
              107.59120297,
              -7.0369618
            ],
            [
              107.59134112,
              -7.03679591
            ],
            [
              107.5915017,
              -7.03630582
            ],
            [
              107.59167685,
              -7.03584544
            ],
            [
              107.59172099,
              -7.03573708
            ],
            [
              107.59149127,
              -7.03574502
            ],
            [
              107.59134768,
              -7.0357562
            ],
            [
              107.59129487,
              -7.03590879
            ],
            [
              107.59119523,
              -7.03589989
            ],
            [
              107.59118891,
              -7.03603026
            ],
            [
              107.59122436,
              -7.03646265
            ],
            [
              107.59125526,
              -7.03651064
            ],
            [
              107.59119636,
              -7.03687811
            ],
            [
              107.59110795,
              -7.036866
            ],
            [
              107.59099048,
              -7.03684299
            ]
          ]
        ]
      },
      "properties": {
        "persilpasifid": "f55ff562de9c44b38ff411f11f09e279",
        "nilai": null,
        "tipehak": "Hak Milik",
        "luas": 4100,
        "tahun": 2000,
        "nib": "01497",
        "alatukur": null,
        "nomor": "10141302100417",
        "akurasibidang": null,
        "sample_source": "Arjasari",
        "sample_lon": 107.5915143,
        "sample_lat": -7.0362458,
        "kecamatan_id": 320416,
        "kecamatan_nama": "Arjasari",
        "kelurahan_id": null,
        "kelurahan_nama": null,
        "geometry_hash": "47f06667074f41b67a3ca686c77a85cb",
        "dedup_keys": [
          "nib:01497",
          "persilpasifid:f55ff562de9c44b38ff411f11f09e279",
          "nomor:10141302100417",
          "geometry:47f06667074f41b67a3ca686c77a85cb"
        ],
        "source_key": "nib:01497"
      }
    },
    {
      "type": "Feature",
      "geometry": {
        "type": "Polygon",
        "coordinates": [
          [
            [
              107.59270252,
              -7.03933923
            ],
            [
              107.5926726,
              -7.03959507
            ],
            [
              107.59292786,
              -7.03959022
            ],
            [
              107.59294206,
              -7.03936023
            ],
            [
              107.59270252,
              -7.03933923
            ]
          ]
        ]
      },
      "properties": {
        "persilpasifid": "2F90231984B6E3FCE053021D0B0AEE7A",
        "nilai": null,
        "tipehak": "Hak Milik",
        "luas": 667,
        "tahun": 1974,
        "nib": null,
        "alatukur": null,
        "nomor": "10141702100014",
        "akurasibidang": null,
        "sample_source": "Arjasari",
        "sample_lon": 107.5927719,
        "sample_lat": -7.0393662,
        "kecamatan_id": 320416,
        "kecamatan_nama": "Arjasari",
        "kelurahan_id": null,
        "kelurahan_nama": null,
        "geometry_hash": "5bce6c3ddb9f9e06fcef89972fbffb83",
        "dedup_keys": [
          "persilpasifid:2f90231984b6e3fce053021d0b0aee7a",
          "nomor:10141702100014",
          "geometry:5bce6c3ddb9f9e06fcef89972fbffb83"
        ],
        "source_key": "persilpasifid:2f90231984b6e3fce053021d0b0aee7a"
      }
    }
  ]
}