{
  "type": "FeatureCollection",
  "features": [
    {
      "type": "Feature",
      "geometry": {
        "type": "Polygon",
        "coordinates": [
          [
            [
              107.49394192,
              -7.06338407
            ],
            [
              107.49393971,
              -7.06339284
            ],
            [
              107.49382278,
              -7.06337975
            ],
            [
              107.49365114,
              -7.06339032
            ],
            [
              107.49359934,
              -7.06342517
            ],
            [
              107.49360398,
              -7.06356253
            ],
            [
              107.49362132,
              -7.06358456
            ],
            [
              107.49362666,
              -7.0636567
            ],
            [
              107.49364037,
              -7.0636685
            ],
            [
              107.49364719,
              -7.06374052
            ],
            [
              107.49354561,
              -7.06380836
            ],
            [
              107.49353171,
              -7.06384176
            ],
            [
              107.49354369,
              -7.06387589
            ],
            [
              107.49362374,
              -7.063891
            ],
            [
              107.49367714,
              -7.06388115
            ],
            [
              107.4939879,
              -7.06365468
            ],
            [
              107.49399004,
              -7.06362764
            ],
            [
              107.49407316,
              -7.06358351
            ],
            [
              107.49404812,
              -7.06350988
            ],
            [
              107.49405251,
              -7.06341504
            ],
            [
              107.4940232,
              -7.06338946
            ],
            [
              107.49394192,
              -7.06338407
            ]
          ]
        ]
      },
      "properties": {
        "persilpasifid": "86669D8A8F3B6ACAE0530C1D140AC9BC",
        "nilai": null,
        "tipehak": "Hak Milik",
        "luas": 2075,
        "tahun": 2019,
        "nib": "02534",
        "alatukur": "Meteran",
        "nomor": "10143410101614",
        "akurasibidang": null,
        "sample_source": "Soreang",
        "sample_lon": 107.4937736,
        "sample_lat": -7.0634017,
        "kecamatan_id": 320437,
        "kecamatan_nama": "Soreang",
        "kelurahan_id": null,
        "kelurahan_nama": null,
        "geometry_hash": "3e38d5a30e4512e751d840215076b5af",
        "source_key": "3e38d5a30e4512e751d840215076b5af"
      }
    },
    {
      "type": "Feature",
      "geometry": {
        "type": "Polygon",
        "coordinates": [
          [
            [
              107.49381574,
              -7.0617139
            ],
            [
              107.49368236,
              -7.06172629
            ],
            [
              107.49347294,
              -7.06171093
            ],
            [
              107.49344638,
              -7.06169208
            ],
            [
              107.49339287,
              -7.06151649
            ],
            [
              107.493369,
              -7.06150799
            ],
            [
              107.49332994,
              -7.06158956
            ],
            [
              107.49334042,
              -7.06162512
            ],
            [
              107.49321571,
              -7.06173944
            ],
            [
              107.49317728,
              -7.06180913
            ],
            [
              107.49334678,
              -7.06189503
            ],
            [
              107.49364564,
              -7.06196833
            ],
            [
              107.49373857,
              -7.06191216
            ],
            [
              107.49374024,
              -7.06189144
            ],
            [
              107.49375774,
              -7.06187858
            ],
            [
              107.49377593,
              -7.06181325
            ],
            [
              107.49379599,
              -7.06180492
            ],
            [
              107.49381574,
              -7.0617139
            ]
          ]
        ]
      },
      "properties": {
        "persilpasifid": "86669D8A8F436ACAE0530C1D140AC9BC",
        "nilai": null,
        "tipehak": "Hak Milik",
        "luas": 1639,
        "tahun": 2019,
        "nib": "02542",
        "alatukur": "Meteran",
        "nomor": "10143410100795",
        "akurasibidang": null,
        "sample_source": "Soreang",
        "sample_lon": 107.4937736,
        "sample_lat": -7.061797,
        "kecamatan_id": 320437,
        "kecamatan_nama": "Soreang",
        "kelurahan_id": null,
        "kelurahan_nama": null,
        "geometry_hash": "998039985a11b9b17a92a11f4e215140",
        "source_key": "998039985a11b9b17a92a11f4e215140"
      }
    },
    {
      "type": "Feature",
      "geometry": {
        "type": "Polygon",
        "coordinates": [
          [
            [
              107.4939478,
              -7.0657388
            ],
            [
              107.49402124,
              -7.06573595
            ],
            [
              107.49410419,
              -7.06577945
            ],
            [
              107.49413099,
              -7.06582729
            ],
            [
              107.49418914,
              -7.06591729
            ],
            [
              107.49433194,
              -7.06586875
            ],
            [
              107.49431696,
              -7.06578871
            ],
            [
              107.4942897,
              -7.06569738
            ],
            [
              107.49428389,
              -7.06562555
            ],
            [
              107.49427293,
              -7.06554811
            ],
            [
              107.49418346,
              -7.06544488
            ],
            [
              107.49415254,
              -7.06539896
            ],
            [
              107.49412575,
              -7.06537237
            ],
            [
              107.49406093,
              -7.06535822
            ],
            [
              107.49397837,
              -7.06534852
            ],
            [
              107.49392477,
              -7.06531961
            ],
            [
              107.49387992,
              -7.06525326
            ],
            [
              107.49387491,
              -7.0652568
            ],
            [
              107.49379304,
              -7.06536112
            ],
            [
              107.49375878,
              -7.06540842
            ],
            [
              107.49370612,
              -7.06549846
            ],
            [
              107.49364915,
              -7.06562517
            ],
            [
              107.49362447,
              -7.06571562
            ],
            [
              107.49363531,
              -7.06572636
            ],
            [
              107.49366199,
              -7.06578866
            ],
            [
              107.49367227,
              -7.06581582
            ],
            [
              107.49367687,
              -7.06583994
            ],
            [
              107.49370204,
              -7.06587228
            ],
            [
              107.49371836,
              -7.06592353
            ],
            [
              107.49372657,
              -7.0660426
            ],
            [
              107.49384268,
              -7.0660264
            ],
            [
              107.49385769,
              -7.06587362
            ],
            [
              107.49388107,
              -7.06579746
            ],
            [
              107.49390273,
              -7.06576419
            ],
            [
              107.4939478,
              -7.0657388
            ]
          ]
        ]
      },
      "properties": {
        "persilpasifid": "31b9a5ba375c428f96c8e06c3644dd07",
        "nilai": null,
        "tipehak": "Hak Milik",
        "luas": 3655,
        "tahun": 2000,
        "nib": "01352",
        "alatukur": null,
        "nomor": "10143410100063",
        "akurasibidang": null,
        "sample_source": "Soreang",
        "sample_lon": 107.4937736,
        "sample_lat": -7.0658087,
        "kecamatan_id": 320437,
        "kecamatan_nama": "Soreang",
        "kelurahan_id": null,
        "kelurahan_nama": null,
        "geometry_hash": "9665d708038c458026cf71ee28d664d9",
        "source_key": "9665d708038c458026cf71ee28d664d9"
      }
    },
    {
      "type": "Feature",
      "geometry": {
        "type": "Polygon",
        "coordinates": [
          [
            [
              107.49497641,
              -7.06416233
            ],
            [
              107.49482243,
              -7.0635333
            ],
            [
              107.49473842,
              -7.06357828
            ],
            [
              107.49470254,
              -7.06361523
            ],
            [
              107.49466732,
              -7.06366492
            ],
            [
              107.49450126,
              -7.06374013
            ],
            [
              107.49444683,
              -7.06395143
            ],
            [
              107.49433822,
              -7.0641347
            ],
            [
              107.49423142,
              -7.06436796
            ],
            [
              107.49417499,
              -7.06457773
            ],
            [
              107.49462267,
              -7.06447487
            ],
            [
              107.49504121,
              -7.06442706
            ],
            [
              107.49497641,
              -7.06416233
            ]
          ]
        ]
      },
      "properties": {
        "persilpasifid": "1FEA93A4FE7E6922E053141D0B0AE262",
        "nilai": null,
        "tipehak": "Hak Milik",
        "luas": 6021,
        "tahun": 2016,
        "nib": "01394",
        "alatukur": null,
        "nomor": "10143410100143",
        "akurasibidang": null,
        "sample_source": "Soreang",
        "sample_lon": 107.494582,
        "sample_lat": -7.064204,
        "kecamatan_id": 320437,
        "kecamatan_nama": "Soreang",
        "kelurahan_id": null,
        "kelurahan_nama": null,
        "geometry_hash": "8b9ac76672ede423bf97c8e702d6cc41",
        "source_key": "8b9ac76672ede423bf97c8e702d6cc41"
      }
    },
    {
      "type": "Feature",
      "geometry": {
        "type": "Polygon",
        "coordinates": [
          [
            [
              107.49442987,
              -7.03620851
            ],
            [
              107.49468134,
              -7.03612394
            ],
            [
              107.49467496,
              -7.03607054
            ],
            [
              107.49466893,
              -7.03604765
            ],
            [
              107.4946689,
              -7.0360295
            ],
            [
              107.49470156,
              -7.03602273
            ],
            [
              107.49468688,
              -7.03589658
            ],
            [
              107.49471236,
              -7.03576398
            ],
            [
              107.49469497,
              -7.03575056
            ],
            [
              107.49467057,
              -7.03570742
            ],
            [
              107.49464456,
              -7.03570747
            ],
            [
              107.4946209,
              -7.03570087
            ],
            [
              107.494604,
              -7.03568672
            ],
            [
              107.49456391,
              -7.03568764
            ],
            [
              107.49452868,
              -7.03574219
            ],
            [
              107.49452198,
              -7.03578977
            ],
            [
              107.49453084,
              -7.03582146
            ],
            [
              107.49445227,
              -7.03597439
            ],
            [
              107.49443417,
              -7.03605193
            ],
            [
              107.49442805,
              -7.03619646
            ],
            [
              107.49442987,
              -7.03620851
            ]
          ]
        ]
      },
      "properties": {
        "persilpasifid": "0D1B48B1CCF8F70EE063B416140A4AD8",
        "nilai": null,
        "tipehak": "Kosong",
        "luas": 1203,
        "tahun": null,
        "nib": null,
        "alatukur": null,
        "nomor": null,
        "akurasibidang": 0.5,
        "sample_source": "Soreang",
        "sample_lon": 107.494582,
        "sample_lat": -7.036121,
        "kecamatan_id": 320437,
        "kecamatan_nama": "Soreang",
        "kelurahan_id": null,
        "kelurahan_nama": null,
        "geometry_hash": "823cb4be6df688a64221ed33f406d440",
        "source_key": "823cb4be6df688a64221ed33f406d440"
      }
    },
    {
      "type": "Feature",
      "geometry": {
        "type": "Polygon",
        "coordinates": [
          [
            [
              107.49431868,
              -7.06212646
            ],
            [
              107.49423922,
              -7.06226333
            ],
            [
              107.49428757,
              -7.0623615
            ],
            [
              107.49427811,
              -7.06249045
            ],
            [
              107.49421146,
              -7.06258178
            ],
            [
              107.49414761,
              -7.06271163
            ],
            [
              107.49429644,
              -7.06276023
            ],
            [
              107.49427257,
              -7.06285679
            ],
            [
              107.49428016,
              -7.06298044
            ],
            [
              107.49423867,
              -7.06298391
            ],
            [
              107.49425057,
              -7.0630954
            ],
            [
              107.49423416,
              -7.06322092
            ],
            [
              107.49425208,
              -7.06328163
            ],
            [
              107.49430384,
              -7.06324207
            ],
            [
              107.49440046,
              -7.06321807
            ],
            [
              107.4944412,
              -7.06306049
            ],
            [
              107.49455848,
              -7.06305108
            ],
            [
              107.49459259,
              -7.06286428
            ],
            [
              107.49466156,
              -7.06283024
            ],
            [
              107.49464119,
              -7.06273751
            ],
            [
              107.49463745,
              -7.06237586
            ],
            [
              107.49458177,
              -7.06234567
            ],
            [
              107.49459284,
              -7.06230184
            ],
            [
              107.49455443,
              -7.06216516
            ],
            [
              107.49449956,
              -7.06213351
            ],
            [
              107.49431868,
              -7.06212646
            ]
          ]
        ]
      },
      "properties": {
        "persilpasifid": "86669D8A8F3E6ACAE0530C1D140AC9BC",
        "nilai": null,
        "tipehak": "Hak Milik",
        "luas": 4412,
        "tahun": 2019,
        "nib": "02537",
        "alatukur": "Meteran",
        "nomor": "10143410100722",
        "akurasibidang": null,
        "sample_source": "Soreang",
        "sample_lon": 107.494582,
        "sample_lat": -7.0625993,
        "kecamatan_id": 320437,
        "kecamatan_nama": "Soreang",
        "kelurahan_id": null,
        "kelurahan_nama": null,
        "geometry_hash": "ca5dcf74c47c766a0fe3d25fb0b5d575",
        "source_key": "ca5dcf74c47c766a0fe3d25fb0b5d575"
      }
    },
    {
      "type": "Feature",
      "geometry": {
        "type": "Polygon",
        "coordinates": [
          [
            [
              107.49523398,
              -7.03597391
            ],
            [
              107.49523236,
              -7.03619937
            ],
            [
              107.49524453,
              -7.03631346
            ],
            [
              107.49531683,
              -7.03631331
            ],
            [
              107.4953965,
              -7.03633176
            ],
            [
              107.49541379,
              -7.03621372
            ],
            [
              107.49541365,
              -7.03614799
            ],
            [
              107.4954213,
              -7.03610573
            ],
            [
              107.49542116,
              -7.03604158
            ],
            [
              107.49543199,
              -7.03588464
            ],
            [
              107.49543929,
              -7.03585733
            ],
            [
              107.49543922,
              -7.03582583
            ],
            [
              107.49537546,
              -7.03580088
            ],
            [
              107.49527948,
              -7.03575724
            ],
            [
              107.4952417,
              -7.03572554
            ],
            [
              107.49523398,
              -7.03597391
            ]
          ]
        ]
      },
      "properties": {
        "persilpasifid": "0D1B48B1CCF7F70EE063B416140A4AD8",
        "nilai": null,
        "tipehak": "Kosong",
        "luas": 1220,
        "tahun": null,
        "nib": null,
        "alatukur": null,
        "nomor": null,
        "akurasibidang": 0.5,
        "sample_source": "Soreang",
        "sample_lon": 107.4953905,
        "sample_lat": -7.036121,
        "kecamatan_id": 320437,
        "kecamatan_nama": "Soreang",
        "kelurahan_id": null,
        "kelurahan_nama": null,
        "geometry_hash": "84e13a24574cd1e8db141087e63ec4f7",
        "source_key": "84e13a24574cd1e8db141087e63ec4f7"
      }
    },
    {
      "type": "Feature",
      "geometry": {
        "type": "Polygon",
        "coordinates": [
          [
            [
              107.49395566,
              -7.06653491
            ],
            [
              107.49383725,
              -7.0665411
            ],
            [
              107.4937876,
              -7.06656307
            ],
            [
              107.4935984,
              -7.06658122
            ],
            [
              107.49358363,
              -7.06683894
            ],
            [
              107.4936463,
              -7.06681805
            ],
            [
              107.49376731,
              -7.06677218
            ],
            [
              107.49383686,
              -7.0667556
            ],
            [
              107.49389387,
              -7.06675409
            ],
            [
              107.49390576,
              -7.06674756
            ],
            [
              107.49397601,
              -7.06660071
            ],
            [
              107.49395676,
              -7.06659819
            ],
            [
              107.49395566,
              -7.06653491
            ]
          ]
        ]
      },
      "properties": {
        "persilpasifid": "86669D8A8F056ACAE0530C1D140AC9BC",
        "nilai": null,
        "tipehak": "Hak Milik",
        "luas": 961,
        "tahun": 2019,
        "nib": "02398",
        "alatukur": "Meteran",
        "nomor": "10143410100827",
        "akurasibidang": null,
        "sample_source": "Soreang",
        "sample_lon": 107.4937736,
        "sample_lat": -7.066611,
        "kecamatan_id": 320437,
        "kecamatan_nama": "Soreang",
        "kelurahan_id": null,
        "kelurahan_nama": null,
        "geometry_hash": "1f4e3f3b0d7546f2a247372696190de1",
        "source_key": "1f4e3f3b0d7546f2a247372696190de1"
      }
    },
    {
      "type": "Feature",
      "geometry": {
        "type": "Polygon",
        "coordinates": [
          [
            [
              107.49285561,
              -7.06567579
            ],
            [
              107.49284575,
              -7.06574563
            ],
            [
              107.49285518,
              -7.06580821
            ],
            [
              107.49298616,
              -7.06581635
            ],
            [
              107.4929787,
              -7.06567642
            ],
            [
              107.49285561,
              -7.06567579
            ]
          ]
        ]
      },
      "properties": {
        "persilpasifid": "8666A5700D1F6AD4E0530C1D140A135B",
        "nilai": null,
        "tipehak": "Hak Milik",
        "luas": 220,
        "tahun": 2019,
        "nib": "02436",
        "alatukur": "Meteran",
        "nomor": "10143410100662",
        "akurasibidang": null,
        "sample_source": "Soreang",
        "sample_lon": 107.4929651,
        "sample_lat": -7.0658087,
        "kecamatan_id": 320437,
        "kecamatan_nama": "Soreang",
        "kelurahan_id": null,
        "kelurahan_nama": null,
        "geometry_hash": "150b0e35a2a6a533b3be0888e2f45aa7",
        "source_key": "150b0e35a2a6a533b3be0888e2f45aa7"
      }
    },
    {
      "type": "Feature",
      "geometry": {
        "type": "Polygon",
        "coordinates": [
          [
            [
              107.49303872,
              -7.06341465
            ],
            [
              107.49308488,
              -7.06342383
            ],
            [
              107.49321551,
              -7.06329865
            ],
            [
              107.49312909,
              -7.06301586
            ],
            [
              107.4927403,
              -7.06303347
            ],
            [
              107.49277687,
              -7.0633205
            ],
            [
              107.49283455,
              -7.06337405
            ],
            [
              107.49303872,
              -7.06341465
            ]
          ]
        ]
      },
      "properties": {
        "persilpasifid": "86669D8A8F386ACAE0530C1D140AC9BC",
        "nilai": null,
        "tipehak": "Hak Milik",
        "luas": 1837,
        "tahun": 2019,
        "nib": "02531",
        "alatukur": "Meteran",
        "nomor": "10143410100828",
        "akurasibidang": null,
        "sample_source": "Soreang",
        "sample_lon": 107.4929651,
        "sample_lat": -7.0634017,
        "kecamatan_id": 320437,
        "kecamatan_nama": "Soreang",
        "kelurahan_id": null,
        "kelurahan_nama": null,
        "geometry_hash": "0f59174e009204cadd5a777a959a8474",
        "source_key": "0f59174e009204cadd5a777a959a8474"
      }
    },
    {
      "type": "Feature",
      "geometry": {
        "type": "Polygon",
        "coordinates": [
          [
            [
              107.49633316,
              -7.06239625
            ],
            [
              107.49644306,
              -7.06217136
            ],
            [
              107.49647605,
              -7.06212855
            ],
            [
              107.49651423,
              -7.06208373
            ],
            [
              107.49658467,
              -7.06201575
            ],
            [
              107.49669051,
              -7.06193696
            ],
            [
              107.49675834,
              -7.06189455
            ],
            [
              107.49684716,
              -7.06184424
            ],
            [
              107.49692587,
              -7.06180745
            ],
            [
              107.49700736,
              -7.06176242
            ],
            [
              107.4973711,
              -7.06160032
            ],
            [
              107.49750895,
              -7.06154588
            ],
            [
              107.49755995,
              -7.06152985
            ],
            [
              107.49769739,
              -7.06149386
            ],
            [
              107.4977981,
              -7.06147102
            ],
            [
              107.49787864,
              -7.06144323
            ],
            [
              107.49793317,
              -7.06142223
            ],
            [
              107.49796859,
              -7.06140549
            ],
            [
              107.49807035,
              -7.06134209
            ],
            [
              107.49820631,
              -7.06124266
            ],
            [
              107.49828818,
              -7.06117415
            ],
            [
              107.49837483,
              -7.06110712
            ],
            [
              107.4986316,
              -7.0608862
            ],
            [
              107.49870343,
              -7.06081332
            ],
            [
              107.4987707,
              -7.06073075
            ],
            [
              107.49878591,
              -7.06070579
            ],
            [
              107.4988141,
              -7.06065174
            ],
            [
              107.49887867,
              -7.06049833
            ],
            [
              107.49893923,
              -7.06036918
            ],
            [
              107.49899496,
              -7.06029159
            ],
            [
              107.49902961,
              -7.06025338
            ],
            [
              107.49908062,
              -7.06020519
            ],
            [
              107.49916934,
              -7.06011197
            ],
            [
              107.49921229,
              -7.06002151
            ],
            [
              107.49922872,
              -7.05994837
            ],
            [
              107.49923025,
              -7.05993042
            ],
            [
              107.49922632,
              -7.05989358
            ],
            [
              107.49913555,
              -7.05994767
            ],
            [
              107.49908876,
              -7.06005282
            ],
            [
              107.49899714,
              -7.06014673
            ],
            [
              107.49897096,
              -7.06016864
            ],
            [
              107.49888968,
              -7.0602562
            ],
            [
              107.49883065,
              -7.06034769
            ],
            [
              107.49880767,
              -7.06040314
            ],
            [
              107.49879998,
              -7.06043345
            ],
            [
              107.49872342,
              -7.06066038
            ],
            [
              107.49868316,
              -7.06071428
            ],
            [
              107.49844268,
              -7.06095051
            ],
            [
              107.49832505,
              -7.06105377
            ],
            [
              107.4982657,
              -7.06111134
            ],
            [
              107.49817538,
              -7.06117336
            ],
            [
              107.49809884,
              -7.06123474
            ],
            [
              107.49796724,
              -7.06131438
            ],
            [
              107.49784062,
              -7.06137151
            ],
            [
              107.49758831,
              -7.06144032
            ],
            [
              107.49743506,
              -7.06150102
            ],
            [
              107.4973436,
              -7.06154119
            ],
            [
              107.49713427,
              -7.06161616
            ],
            [
              107.49699699,
              -7.06168387
            ],
            [
              107.49697576,
              -7.06169894
            ],
            [
              107.49691418,
              -7.06171869
            ],
            [
              107.49684793,
              -7.06175211
            ],
            [
              107.49666083,
              -7.0618713
            ],
            [
              107.49647699,
              -7.06202752
            ],
            [
              107.49643038,
              -7.0620704
            ],
            [
              107.49628014,
              -7.06232274
            ],
            [
              107.49612237,
              -7.06253952
            ],
            [
              107.49606246,
              -7.06261074
            ],
            [
              107.49577171,
              -7.06292954
            ],
            [
              107.49574281,
              -7.06296548
            ],
            [
              107.49562024,
              -7.06307564
            ],
            [
              107.49550326,
              -7.0631729
            ],
            [
              107.49526296,
              -7.06330053
            ],
            [
              107.49503145,
              -7.06332256
            ],
            [
              107.49481865,
              -7.06330873
            ],
            [
              107.49474754,
              -7.0633121
            ],
            [
              107.49465504,
              -7.06332311
            ],
            [
              107.49457538,
              -7.06336519
            ],
            [
              107.49442175,
              -7.06349111
            ],
            [
              107.49439444,
              -7.06352288
            ],
            [
              107.49439895,
              -7.06365412
            ],
            [
              107.49416831,
              -7.06419184
            ],
            [
              107.49411465,
              -7.06435125
            ],
            [
              107.49405445,
              -7.06460276
            ],
            [
              107.49413877,
              -7.06459165
            ],
            [
              107.49414974,
              -7.06453558
            ],
            [
              107.4942137,
              -7.064357
            ],
            [
              107.49441552,
              -7.06396966
            ],
            [
              107.49444893,
              -7.06384906
            ],
            [
              107.49448021,
              -7.06375365
            ],
            [
              107.49449135,
              -7.0636392
            ],
            [
              107.49451693,
              -7.0635634
            ],
            [
              107.49456193,
              -7.06350324
            ],
            [
              107.49459379,
              -7.06347582
            ],
            [
              107.49464872,
              -7.06344359
            ],
            [
              107.49470837,
              -7.06342006
            ],
            [
              107.49476268,
              -7.06341445
            ],
            [
              107.49484006,
              -7.06340057
            ],
            [
              107.49503086,
              -7.06343096
            ],
            [
              107.49508795,
              -7.06342634
            ],
            [
              107.49524294,
              -7.0633945
            ],
            [
              107.49536502,
              -7.06334783
            ],
            [
              107.49544325,
              -7.06331218
            ],
            [
              107.49558379,
              -7.06322109
            ],
            [
              107.49576071,
              -7.06305861
            ],
            [
              107.49591885,
              -7.06289477
            ],
            [
              107.49598214,
              -7.06281445
            ],
            [
              107.49629521,
              -7.06246742
            ],
            [
              107.49633316,
              -7.06239625
            ]
          ]
        ]
      },
      "properties": {
        "persilpasifid": "EFB546596A3F12F6E0530B1D140AC7CF",
        "nilai": null,
        "tipehak": "Hak Pakai",
        "luas": 7941,
        "tahun": 2022,
        "nib": null,
        "alatukur": "Meteran",
        "nomor": "10143410400005",
        "akurasibidang": null,
        "sample_source": "Soreang",
        "sample_lon": 107.494582,
        "sample_lat": -7.0634017,
        "kecamatan_id": 320437,
        "kecamatan_nama": "Soreang",
        "kelurahan_id": null,
        "kelurahan_nama": null,
        "geometry_hash": "bb6dee360d898055017b0bc4d0591597",
        "source_key": "bb6dee360d898055017b0bc4d0591597"
      }
    },
    {
      "type": "Feature",
      "geometry": {
        "type": "Polygon",
        "coordinates": [
          [
            [
              107.49568973,
              -7.06618371
            ],
            [
              107.49559128,
              -7.06590106
            ],
            [
              107.49568052,
              -7.06588766
            ],
            [
              107.49561834,
              -7.0656474
            ],
            [
              107.49531906,
              -7.06573954
            ],
            [
              107.49470636,
              -7.06569285
            ],
            [
              107.49471174,
              -7.06572444
            ],
            [
              107.49470767,
              -7.06578626
            ],
            [
              107.49469478,
              -7.06581675
            ],
            [
              107.49467182,
              -7.06585318
            ],
            [
              107.49466672,
              -7.06589245
            ],
            [
              107.49466419,
              -7.06599138
            ],
            [
              107.49495223,
              -7.06594029
            ],
            [
              107.49499392,
              -7.06609702
            ],
            [
              107.49506189,
              -7.06625126
            ],
            [
              107.49568973,
              -7.06618371
            ]
          ]
        ]
      },
      "properties": {
        "persilpasifid": "8B3131039002C9F0E0530B1D140A0166",
        "nilai": null,
        "tipehak": "Hak Milik",
        "luas": 5038,
        "tahun": 2019,
        "nib": "03323",
        "alatukur": "Meteran",
        "nomor": "10143410101679",
        "akurasibidang": null,
        "sample_source": "Soreang",
        "sample_lon": 107.4953905,
        "sample_lat": -7.0658087,
        "kecamatan_id": 320437,
        "kecamatan_nama": "Soreang",
        "kelurahan_id": null,
        "kelurahan_nama": null,
        "geometry_hash": "8e53dc9352203280ad8b40bfd3bcc282",
        "source_key": "8e53dc9352203280ad8b40bfd3bcc282"
      }
    },
    {
      "type": "Feature",
      "geometry": {
        "type": "Polygon",
        "coordinates": [
          [
            [
              107.49544325,
              -7.06331218
            ],
            [
              107.49531214,
              -7.0633839
            ],
            [
              107.49522009,
              -7.06340314
            ],
            [
              107.49521674,
              -7.06348644
            ],
            [
              107.49530392,
              -7.06351712
            ],
            [
              107.49544262,
              -7.06353292
            ],
            [
              107.49550683,
              -7.06352397
            ],
            [
              107.49551052,
              -7.06350902
            ],
            [
              107.49546612,
              -7.06338882
            ],
            [
              107.49544325,
              -7.06331218
            ]
          ]
        ]
      },
      "properties": {
        "persilpasifid": "a3cbbbae211a4e69b40edea7f7066ab4",
        "nilai": null,
        "tipehak": "Hak Milik",
        "luas": 502,
        "tahun": 2001,
        "nib": "01153",
        "alatukur": null,
        "nomor": "10143410100065",
        "akurasibidang": null,
        "sample_source": "Soreang",
        "sample_lon": 107.4953905,
        "sample_lat": -7.0634017,
        "kecamatan_id": 320437,
        "kecamatan_nama": "Soreang",
        "kelurahan_id": null,
        "kelurahan_nama": null,
        "geometry_hash": "7739e07339aa670db9044e2afd95887d",
        "source_key": "7739e07339aa670db9044e2afd95887d"
      }
    }
  ]
}